COSMOS 2228             
1 22286U 92094A   25333.11845106  .00002275  00000+0  19692-3 0  9991
2 22286  82.5176 333.5685 0016335 281.8303  78.1087 14.96630119761013
SL-16 R/B               
1 22566U 93016B   25333.20563236 -.00000082  00000+0 -17866-4 0  9996
2 22566  71.0092  66.2276 0008029 123.2601 236.9292 14.15289160687950
COSMOS 2242             
1 22626U 93024A   25333.12519738  .00002077  00000+0  18255-3 0  9997
2 22626  82.5201   2.8578 0014842 284.8394  75.1183 14.96019951765351
SL-16 R/B               
1 22803U 93059B   25333.10977869  .00000038  00000+0  42492-4 0  9999
2 22803  70.9893 223.2270 0017130 355.7679   4.3297 14.17207991665288
ARIANE 40 R/B           
1 22830U 93061H   25333.21017266  .00000266  00000+0  11343-3 0  9993
2 22830  98.5094  38.9854 0010121 216.7504 143.2987 14.32787456679710
COSMOS 2278             
1 23087U 94023A   25333.16886383  .00000058  00000+0  54752-4 0  9996
2 23087  71.0556  25.4029 0009121 198.8799 161.1986 14.14350245630596
SL-16 R/B               
1 23088U 94023B   25333.19055301  .00000320  00000+0  18987-3 0  9999
2 23088  70.9996 281.9388 0001087  96.0666 264.0581 14.14994390631876
SL-16 R/B               
1 23343U 94074B   25333.07717406  .00000549  00000+0  80522-4 0  9995
2 23343  97.7218   2.9240 0006546 176.4576 235.8956 14.79265067672375
SL-16 R/B               
1 23405U 94077B   25333.06998641 -.00000230  00000+0 -93304-4 0  9999
2 23405  70.9813 204.1707 0004557 295.0818  64.9831 14.15546197601998
ARIANE 40+ R/B          
1 23561U 95021B   25333.17738328  .00000360  00000+0  12905-3 0  9997
2 23561  98.4668  40.9290 0007883  85.5346 300.5926 14.39679047604781
SL-16 R/B               
1 23705U 95058B   25333.21334891  .00000174  00000+0  11312-3 0  9993
2 23705  71.0224  31.2036 0014888 272.2379  87.7039 14.15475617553638
SL-16 R/B               
1 24298U 96051B   25333.10322522 -.00000023  00000+0  14285-4 0  9998
2 24298  70.7606  28.1484 0018985 278.2538  81.6428 14.12394455507443
