CCSDS_OMM_VERS = 2.0
CREATION_DATE  = 
ORIGINATOR     = 

OBJECT_NAME    = COSMOS 2228
OBJECT_ID      = 1992-094A
CENTER_NAME    = EARTH
REF_FRAME      = TEME
TIME_SYSTEM    = UTC
MEAN_ELEMENT_THEORY = SGP/SGP4

EPOCH          = 2025-11-29T02:50:34.171584
MEAN_MOTION    = 14.96630119
ECCENTRICITY   = .0016335
INCLINATION    = 82.5176
RA_OF_ASC_NODE = 333.5685
ARG_OF_PERICENTER = 281.8303
MEAN_ANOMALY   = 78.1087

EPHEMERIS_TYPE = 0
CLASSIFICATION_TYPE = U
NORAD_CAT_ID   = 22286
ELEMENT_SET_NO = 999
REV_AT_EPOCH   = 76101
BSTAR          = .19692E-3
MEAN_MOTION_DOT = .2275E-4
MEAN_MOTION_DDOT = 0

CCSDS_OMM_VERS = 2.0
CREATION_DATE  = 
ORIGINATOR     = 

OBJECT_NAME    = SL-16 R/B
OBJECT_ID      = 1993-016B
CENTER_NAME    = EARTH
REF_FRAME      = TEME
TIME_SYSTEM    = UTC
MEAN_ELEMENT_THEORY = SGP/SGP4

EPOCH          = 2025-11-29T04:56:06.635904
MEAN_MOTION    = 14.15289160
ECCENTRICITY   = .0008029
INCLINATION    = 71.0092
RA_OF_ASC_NODE = 66.2276
ARG_OF_PERICENTER = 123.2601
MEAN_ANOMALY   = 236.9292

EPHEMERIS_TYPE = 0
CLASSIFICATION_TYPE = U
NORAD_CAT_ID   = 22566
ELEMENT_SET_NO = 999
REV_AT_EPOCH   = 68795
BSTAR          = -.17866E-4
MEAN_MOTION_DOT = -.82E-6
MEAN_MOTION_DDOT = 0

CCSDS_OMM_VERS = 2.0
CREATION_DATE  = 
ORIGINATOR     = 

OBJECT_NAME    = COSMOS 2242
OBJECT_ID      = 1993-024A
CENTER_NAME    = EARTH
REF_FRAME      = TEME
TIME_SYSTEM    = UTC
MEAN_ELEMENT_THEORY = SGP/SGP4

EPOCH          = 2025-11-29T03:00:17.053632
MEAN_MOTION    = 14.96019951
ECCENTRICITY   = .0014842
INCLINATION    = 82.5201
RA_OF_ASC_NODE = 2.8578
ARG_OF_PERICENTER = 284.8394
MEAN_ANOMALY   = 75.1183

EPHEMERIS_TYPE = 0
CLASSIFICATION_TYPE = U
NORAD_CAT_ID   = 22626
ELEMENT_SET_NO = 999
REV_AT_EPOCH   = 76535
BSTAR          = .18255E-3
MEAN_MOTION_DOT = .2077E-4
MEAN_MOTION_DDOT = 0

CCSDS_OMM_VERS = 2.0
CREATION_DATE  = 
ORIGINATOR     = 

OBJECT_NAME    = SL-16 R/B
OBJECT_ID      = 1993-059B
CENTER_NAME    = EARTH
REF_FRAME      = TEME
TIME_SYSTEM    = UTC
MEAN_ELEMENT_THEORY = SGP/SGP4

EPOCH          = 2025-11-29T02:38:04.878816
MEAN_MOTION    = 14.17207991
ECCENTRICITY   = .001713
INCLINATION    = 70.9893
RA_OF_ASC_NODE = 223.2270
ARG_OF_PERICENTER = 355.7679
MEAN_ANOMALY   = 4.3297

EPHEMERIS_TYPE = 0
CLASSIFICATION_TYPE = U
NORAD_CAT_ID   = 22803
ELEMENT_SET_NO = 999
REV_AT_EPOCH   = 66528
BSTAR          = .42492E-4
MEAN_MOTION_DOT = .38E-6
MEAN_MOTION_DDOT = 0

CCSDS_OMM_VERS = 2.0
CREATION_DATE  = 
ORIGINATOR     = 

OBJECT_NAME    = ARIANE 40 R/B
OBJECT_ID      = 1993-061H
CENTER_NAME    = EARTH
REF_FRAME      = TEME
TIME_SYSTEM    = UTC
MEAN_ELEMENT_THEORY = SGP/SGP4

EPOCH          = 2025-11-29T05:02:38.917824
MEAN_MOTION    = 14.32787456
ECCENTRICITY   = .0010121
INCLINATION    = 98.5094
RA_OF_ASC_NODE = 38.9854
ARG_OF_PERICENTER = 216.7504
MEAN_ANOMALY   = 143.2987

EPHEMERIS_TYPE = 0
CLASSIFICATION_TYPE = U
NORAD_CAT_ID   = 22830
ELEMENT_SET_NO = 999
REV_AT_EPOCH   = 67971
BSTAR          = .11343E-3
MEAN_MOTION_DOT = .266E-5
MEAN_MOTION_DDOT = 0

CCSDS_OMM_VERS = 2.0
CREATION_DATE  = 
ORIGINATOR     = 

OBJECT_NAME    = COSMOS 2278
OBJECT_ID      = 1994-023A
CENTER_NAME    = EARTH
REF_FRAME      = TEME
TIME_SYSTEM    = UTC
MEAN_ELEMENT_THEORY = SGP/SGP4

EPOCH          = 2025-11-29T04:03:09.834912
MEAN_MOTION    = 14.14350245
ECCENTRICITY   = .0009121
INCLINATION    = 71.0556
RA_OF_ASC_NODE = 25.4029
ARG_OF_PERICENTER = 198.8799
MEAN_ANOMALY   = 161.1986

EPHEMERIS_TYPE = 0
CLASSIFICATION_TYPE = U
NORAD_CAT_ID   = 23087
ELEMENT_SET_NO = 999
REV_AT_EPOCH   = 63059
BSTAR          = .54752E-4
MEAN_MOTION_DOT = .58E-6
MEAN_MOTION_DDOT = 0

CCSDS_OMM_VERS = 2.0
CREATION_DATE  = 
ORIGINATOR     = 

OBJECT_NAME    = SL-16 R/B
OBJECT_ID      = 1994-023B
CENTER_NAME    = EARTH
REF_FRAME      = TEME
TIME_SYSTEM    = UTC
MEAN_ELEMENT_THEORY = SGP/SGP4

EPOCH          = 2025-11-29T04:34:23.780064
MEAN_MOTION    = 14.14994390
ECCENTRICITY   = .0001087
INCLINATION    = 70.9996
RA_OF_ASC_NODE = 281.9388
ARG_OF_PERICENTER = 96.0666
MEAN_ANOMALY   = 264.0581

EPHEMERIS_TYPE = 0
CLASSIFICATION_TYPE = U
NORAD_CAT_ID   = 23088
ELEMENT_SET_NO = 999
REV_AT_EPOCH   = 63187
BSTAR          = .18987E-3
MEAN_MOTION_DOT = .32E-5
MEAN_MOTION_DDOT = 0

CCSDS_OMM_VERS = 2.0
CREATION_DATE  = 
ORIGINATOR     = 

OBJECT_NAME    = SL-16 R/B
OBJECT_ID      = 1994-074B
CENTER_NAME    = EARTH
REF_FRAME      = TEME
TIME_SYSTEM    = UTC
MEAN_ELEMENT_THEORY = SGP/SGP4

EPOCH          = 2025-11-29T01:51:07.838784
MEAN_MOTION    = 14.79265067
ECCENTRICITY   = .0006546
INCLINATION    = 97.7218
RA_OF_ASC_NODE = 2.9240
ARG_OF_PERICENTER = 176.4576
MEAN_ANOMALY   = 235.8956

EPHEMERIS_TYPE = 0
CLASSIFICATION_TYPE = U
NORAD_CAT_ID   = 23343
ELEMENT_SET_NO = 999
REV_AT_EPOCH   = 67237
BSTAR          = .80522E-4
MEAN_MOTION_DOT = .549E-5
MEAN_MOTION_DDOT = 0

CCSDS_OMM_VERS = 2.0
CREATION_DATE  = 
ORIGINATOR     = 

OBJECT_NAME    = SL-16 R/B
OBJECT_ID      = 1994-077B
CENTER_NAME    = EARTH
REF_FRAME      = TEME
TIME_SYSTEM    = UTC
MEAN_ELEMENT_THEORY = SGP/SGP4

EPOCH          = 2025-11-29T01:40:46.825824
MEAN_MOTION    = 14.15546197
ECCENTRICITY   = .0004557
INCLINATION    = 70.9813
RA_OF_ASC_NODE = 204.1707
ARG_OF_PERICENTER = 295.0818
MEAN_ANOMALY   = 64.9831

EPHEMERIS_TYPE = 0
CLASSIFICATION_TYPE = U
NORAD_CAT_ID   = 23405
ELEMENT_SET_NO = 999
REV_AT_EPOCH   = 60199
BSTAR          = -.93304E-4
MEAN_MOTION_DOT = -.23E-5
MEAN_MOTION_DDOT = 0

CCSDS_OMM_VERS = 2.0
CREATION_DATE  = 
ORIGINATOR     = 

OBJECT_NAME    = ARIANE 40+ R/B
OBJECT_ID      = 1995-021B
CENTER_NAME    = EARTH
REF_FRAME      = TEME
TIME_SYSTEM    = UTC
MEAN_ELEMENT_THEORY = SGP/SGP4

EPOCH          = 2025-11-29T04:15:25.915392
MEAN_MOTION    = 14.39679047
ECCENTRICITY   = .0007883
INCLINATION    = 98.4668
RA_OF_ASC_NODE = 40.9290
ARG_OF_PERICENTER = 85.5346
MEAN_ANOMALY   = 300.5926

EPHEMERIS_TYPE = 0
CLASSIFICATION_TYPE = U
NORAD_CAT_ID   = 23561
ELEMENT_SET_NO = 999
REV_AT_EPOCH   = 60478
BSTAR          = .12905E-3
MEAN_MOTION_DOT = .36E-5
MEAN_MOTION_DDOT = 0

CCSDS_OMM_VERS = 2.0
CREATION_DATE  = 
ORIGINATOR     = 

OBJECT_NAME    = SL-16 R/B
OBJECT_ID      = 1995-058B
CENTER_NAME    = EARTH
REF_FRAME      = TEME
TIME_SYSTEM    = UTC
MEAN_ELEMENT_THEORY = SGP/SGP4

EPOCH          = 2025-11-29T05:07:13.345824
MEAN_MOTION    = 14.15475617
ECCENTRICITY   = .0014888
INCLINATION    = 71.0224
RA_OF_ASC_NODE = 31.2036
ARG_OF_PERICENTER = 272.2379
MEAN_ANOMALY   = 87.7039

EPHEMERIS_TYPE = 0
CLASSIFICATION_TYPE = U
NORAD_CAT_ID   = 23705
ELEMENT_SET_NO = 999
REV_AT_EPOCH   = 55363
BSTAR          = .11312E-3
MEAN_MOTION_DOT = .174E-5
MEAN_MOTION_DDOT = 0

CCSDS_OMM_VERS = 2.0
CREATION_DATE  = 
ORIGINATOR     = 

OBJECT_NAME    = SL-16 R/B
OBJECT_ID      = 1996-051B
CENTER_NAME    = EARTH
REF_FRAME      = TEME
TIME_SYSTEM    = UTC
MEAN_ELEMENT_THEORY = SGP/SGP4

EPOCH          = 2025-11-29T02:28:38.659008
MEAN_MOTION    = 14.12394455
ECCENTRICITY   = .0018985
INCLINATION    = 70.7606
RA_OF_ASC_NODE = 28.1484
ARG_OF_PERICENTER = 278.2538
MEAN_ANOMALY   = 81.6428

EPHEMERIS_TYPE = 0
CLASSIFICATION_TYPE = U
NORAD_CAT_ID   = 24298
ELEMENT_SET_NO = 999
REV_AT_EPOCH   = 50744
BSTAR          = .14285E-4
MEAN_MOTION_DOT = -.23E-6
MEAN_MOTION_DDOT = 0

